{
  "type": "FeatureCollection",
  "features": [
    {
      "type": "Feature",
      "properties": {
        "norad_id": 64751,
        "name": "PROGRESS-MS 31",
        "group": "stations",
        "lat": -49.70448908226213,
        "lon": -31.518118658980303,
        "alt_km": 420.24074346456746,
        "timestamp": "2025-12-25T11:37:43.168578+00:00",
        "meta_object_name": "PROGRESS-MS 31",
        "meta_object_id": "2025-146A",
        "meta_epoch": "2025-12-24T17:30:08.449344",
        "meta_mean_motion": 15.49788781,
        "meta_eccentricity": 0.00031932,
        "meta_inclination": 51.6317,
        "meta_ra_of_asc_node": 83.1022,
        "meta_arg_of_pericenter": 296.2044,
        "meta_mean_anomaly": 63.8616,
        "meta_ephemeris_type": 0,
        "meta_classification_type": "U",
        "meta_norad_cat_id": 64751,
        "meta_element_set_no": 999,
        "meta_rev_at_epoch": 675,
        "meta_bstar": 0.00024880559,
        "meta_mean_motion_dot": 0.00013665,
        "meta_mean_motion_ddot": 0,
        "tle_line1": "1 64751U 25146A   25358.72926446  .00013665  00000+0  24881-3 0  9990",
        "tle_line2": "2 64751  51.6317  83.1022 0003193 296.2044  63.8616 15.49788781  6753"
      },
      "geometry": {
        "type": "Point",
        "coordinates": [
          -31.518118658980303,
          -49.70448908226213
        ]
      }
    },
    {
      "type": "Feature",
      "properties": {
        "norad_id": 64786,
        "name": "TIANZHOU-9",
        "group": "stations",
        "lat": 23.259358363985502,
        "lon": 90.17765761677131,
        "alt_km": 379.180643842441,
        "timestamp": "2025-12-25T11:37:43.168588+00:00",
        "meta_object_name": "TIANZHOU-9",
        "meta_object_id": "2025-149A",
        "meta_epoch": "2025-12-24T21:11:11.048064",
        "meta_mean_motion": 15.59651715,
        "meta_eccentricity": 0.00082343,
        "meta_inclination": 41.4683,
        "meta_ra_of_asc_node": 302.9604,
        "meta_arg_of_pericenter": 137.936,
        "meta_mean_anomaly": 222.2112,
        "meta_ephemeris_type": 0,
        "meta_classification_type": "U",
        "meta_norad_cat_id": 64786,
        "meta_element_set_no": 999,
        "meta_rev_at_epoch": 25530,
        "meta_bstar": 0.00020600017,
        "meta_mean_motion_dot": 0.00016629,
        "meta_mean_motion_ddot": 0,
        "tle_line1": "1 64786U 25149A   25358.88276676  .00016629  00000+0  20600-3 0  9999",
        "tle_line2": "2 64786  41.4683 302.9604 0008234 137.9360 222.2112 15.59651715255301"
      },
      "geometry": {
        "type": "Point",
        "coordinates": [
          90.17765761677131,
          23.259358363985502
        ]
      }
    },
    {
      "type": "Feature",
      "properties": {
        "norad_id": 65077,
        "name": "CREW DRAGON 11",
        "group": "stations",
        "lat": -49.70448944277583,
        "lon": -31.518116743931635,
        "alt_km": 420.2407434420047,
        "timestamp": "2025-12-25T11:37:43.168598+00:00",
        "meta_object_name": "CREW DRAGON 11",
        "meta_object_id": "2025-166A",
        "meta_epoch": "2025-12-24T17:30:08.449344",
        "meta_mean_motion": 15.49788781,
        "meta_eccentricity": 0.00031932,
        "meta_inclination": 51.6317,
        "meta_ra_of_asc_node": 83.1022,
        "meta_arg_of_pericenter": 296.2044,
        "meta_mean_anomaly": 63.8616,
        "meta_ephemeris_type": 0,
        "meta_classification_type": "U",
        "meta_norad_cat_id": 65077,
        "meta_element_set_no": 999,
        "meta_rev_at_epoch": 214,
        "meta_bstar": 0.00024880559,
        "meta_mean_motion_dot": 0.00013665,
        "meta_mean_motion_ddot": 0,
        "tle_line1": "1 65077U 25166A   25358.72926446  .00013665  00000+0  24881-3 0  9994",
        "tle_line2": "2 65077  51.6317  83.1022 0003193 296.2044  63.8616 15.49788781  2144"
      },
      "geometry": {
        "type": "Point",
        "coordinates": [
          -31.518116743931635,
          -49.70448944277583
        ]
      }
    },
    {
      "type": "Feature",
      "properties": {
        "norad_id": 65304,
        "name": "DRAGON CRS-33",
        "group": "stations",
        "lat": -49.7044896590843,
        "lon": -31.51811559490102,
        "alt_km": 420.2407434284669,
        "timestamp": "2025-12-25T11:37:43.168610+00:00",
        "meta_object_name": "DRAGON CRS-33",
        "meta_object_id": "2025-186A",
        "meta_epoch": "2025-12-24T17:30:08.449344",
        "meta_mean_motion": 15.49788781,
        "meta_eccentricity": 0.00031932,
        "meta_inclination": 51.6317,
        "meta_ra_of_asc_node": 83.1022,
        "meta_arg_of_pericenter": 296.2044,
        "meta_mean_anomaly": 63.8616,
        "meta_ephemeris_type": 0,
        "meta_classification_type": "U",
        "meta_norad_cat_id": 65304,
        "meta_element_set_no": 999,
        "meta_rev_at_epoch": 11,
        "meta_bstar": 0.00024880559,
        "meta_mean_motion_dot": 0.00013665,
        "meta_mean_motion_ddot": 0,
        "tle_line1": "1 65304U 25186A   25358.72926446  .00013665  00000+0  24881-3 0  9999",
        "tle_line2": "2 65304  51.6317  83.1022 0003193 296.2044  63.8616 15.49788781   112"
      },
      "geometry": {
        "type": "Point",
        "coordinates": [
          -31.51811559490102,
          -49.7044896590843
        ]
      }
    },
    {
      "type": "Feature",
      "properties": {
        "norad_id": 65586,
        "name": "PROGRESS-MS 32",
        "group": "stations",
        "lat": -49.7044898393409,
        "lon": -31.51811463737787,
        "alt_km": 420.2407434171864,
        "timestamp": "2025-12-25T11:37:43.168620+00:00",
        "meta_object_name": "PROGRESS-MS 32",
        "meta_object_id": "2025-204A",
        "meta_epoch": "2025-12-24T17:30:08.449344",
        "meta_mean_motion": 15.49788781,
        "meta_eccentricity": 0.00031932,
        "meta_inclination": 51.6317,
        "meta_ra_of_asc_node": 83.1022,
        "meta_arg_of_pericenter": 296.2044,
        "meta_mean_anomaly": 63.8616,
        "meta_ephemeris_type": 0,
        "meta_classification_type": "U",
        "meta_norad_cat_id": 65586,
        "meta_element_set_no": 999,
        "meta_rev_at_epoch": 27,
        "meta_bstar": 0.00024880559,
        "meta_mean_motion_dot": 0.00013665,
        "meta_mean_motion_ddot": 0,
        "tle_line1": "1 65586U 25204A   25358.72926446  .00013665  00000+0  24881-3 0  9992",
        "tle_line2": "2 65586  51.6317  83.1022 0003193 296.2044  63.8616 15.49788781   271"
      },
      "geometry": {
        "type": "Point",
        "coordinates": [
          -31.51811463737787,
          -49.7044898393409
        ]
      }
    },
    {
      "type": "Feature",
      "properties": {
        "norad_id": 65616,
        "name": "CYGNUS NG-23",
        "group": "stations",
        "lat": -49.704490019597735,
        "lon": -31.518113679853435,
        "alt_km": 420.2407434059005,
        "timestamp": "2025-12-25T11:37:43.168630+00:00",
        "meta_object_name": "CYGNUS NG-23",
        "meta_object_id": "2025-208A",
        "meta_epoch": "2025-12-24T17:30:08.449344",
        "meta_mean_motion": 15.49788781,
        "meta_eccentricity": 0.00031932,
        "meta_inclination": 51.6317,
        "meta_ra_of_asc_node": 83.1022,
        "meta_arg_of_pericenter": 296.2044,
        "meta_mean_anomaly": 63.8616,
        "meta_ephemeris_type": 0,
        "meta_classification_type": "U",
        "meta_norad_cat_id": 65616,
        "meta_element_set_no": 999,
        "meta_rev_at_epoch": 22,
        "meta_bstar": 0.00024880559,
        "meta_mean_motion_dot": 0.00013665,
        "meta_mean_motion_ddot": 0,
        "tle_line1": "1 65616U 25208A   25358.72926446  .00013665  00000+0  24881-3 0  9990",
        "tle_line2": "2 65616  51.6317  83.1022 0003193 296.2044  63.8616 15.49788781   220"
      },
      "geometry": {
        "type": "Point",
        "coordinates": [
          -31.518113679853435,
          -49.704490019597735
        ]
      }
    },
    {
      "type": "Feature",
      "properties": {
        "norad_id": 65729,
        "name": "DRAGONFLY",
        "group": "stations",
        "lat": -51.22848849301208,
        "lon": -10.326088811732223,
        "alt_km": 343.9707325982845,
        "timestamp": "2025-12-25T11:37:43.168640+00:00",
        "meta_object_name": "DRAGONFLY",
        "meta_object_id": "1998-067XH",
        "meta_epoch": "2025-12-24T22:17:24.635904",
        "meta_mean_motion": 15.7614965,
        "meta_eccentricity": 0.0008056,
        "meta_inclination": 51.6251,
        "meta_ra_of_asc_node": 73.1569,
        "meta_arg_of_pericenter": 349.7528,
        "meta_mean_anomaly": 10.3306,
        "meta_ephemeris_type": 0,
        "meta_classification_type": "U",
        "meta_norad_cat_id": 65729,
        "meta_element_set_no": 999,
        "meta_rev_at_epoch": 1508,
        "meta_bstar": 0.0012604,
        "meta_mean_motion_dot": 0.00206057,
        "meta_mean_motion_ddot": 0,
        "tle_line1": "1 65729U 98067XH  25358.92875736  .00206057  00000+0  12604-2 0  9993",
        "tle_line2": "2 65729  51.6251  73.1569 0008056 349.7528  10.3306 15.76149650 15080"
      },
      "geometry": {
        "type": "Point",
        "coordinates": [
          -10.326088811732223,
          -51.22848849301208
        ]
      }
    }
  ]
}